{
  "type": "FeatureCollection",
  "name": "Территории в составе РФ по официальной позиции Российской Федерации",
  "features": [
    {
      "type": "Feature",
      "properties": { "name": "Крым", "part_of": "RUS" },
      "geometry": {
        "type": "Polygon",
        "coordinates": [[[33.6285, 46.1249], [33.6703, 46.2181], [33.8019, 46.2027], [34.3339, 46.0697], [34.4646, 45.9553], [34.6886, 45.974], [34.7843, 45.8993], [34.81, 45.785], [35.0019, 45.729], [35.3322, 45.3712], [35.4807, 45.2978], [35.716, 45.3406], [35.8333, 45.4709], [35.986, 45.3627], [36.1179, 45.4571], [36.284, 45.4766], [36.5833, 45.4274], [36.6384, 45.3513], [36.5025, 45.3469], [36.4373, 45.272], [36.4401, 45.0675], [35.848, 44.9924], [35.7064, 45.0947], [35.5062, 45.1135], [35.4081, 45.0625], [35.4354, 45.0048], [35.3672, 44.9433], [35.256, 44.9587], [35.0808, 44.7938], [34.986, 44.8403], [34.721, 44.811], [34.469, 44.7298], [34.3313, 44.5455], [34.1026, 44.4251], [33.721, 44.3996], [33.3723, 44.5765], [33.5715, 44.6206], [33.5163, 44.6343], [33.5163, 44.7851], [33.6196, 44.9315], [33.5374, 45.1174], [33.3965, 45.1898], [33.2596, 45.1561], [32.8993, 45.3542], [32.5915, 45.3201], [32.4816, 45.4089], [33.1692, 45.7844], [33.2654, 45.7538], [33.4822, 45.8545], [33.6917, 45.8607], [33.6935, 45.9145], [33.777, 45.9296], [33.6199, 45.9508], [33.6285, 46.1249]]]
      }
    },
    {
      "type": "Feature",
      "properties": { "name": "ДНР, ЛНР, Запорожская и Херсонская области", "part_of": "RUS" },
      "geometry": {
        "type": "Polygon",
        "coordinates": [[
          [37.85, 50.08],
          [38.55, 50.02],
          [39.35, 49.92],
          [40.05, 49.70],
          [40.55, 49.55],
          [40.50, 49.10],
          [40.40, 48.70],
          [40.25, 48.20],
          [40.05, 47.70],
          [39.55, 47.25],
          [39.15, 47.12],
          [38.55, 46.95],
          [38.28, 46.86],
          [37.55, 46.85],
          [36.85, 46.70],
          [36.20, 46.45],
          [35.48, 46.28],
          [35.15, 45.90],
          [34.90, 45.72],
          [34.20, 45.85],
          [33.50, 46.00],
          [32.70, 46.12],
          [31.85, 46.28],
          [31.50, 46.40],
          [31.48, 46.85],
          [31.75, 47.20],
          [32.25, 47.50],
          [32.90, 47.58],
          [33.70, 47.62],
          [34.40, 47.80],
          [34.95, 48.05],
          [35.50, 48.20],
          [36.10, 48.48],
          [36.55, 48.70],
          [37.05, 48.90],
          [37.45, 49.20],
          [37.70, 49.55],
          [37.85, 50.08]
        ]]
      }
    }
  ]
}
